{
  "norad_id": 68742,
  "name": "STARLINK-37351",
  "history": [
    {
      "epoch": "2026-04-23T08:33:05.139936Z",
      "apogee_km": 320.19456450114376,
      "perigee_km": 316.6297235298189,
      "latitude_deg": -5.367709179646626e-05,
      "longitude_deg": -4.195325280457018,
      "height_km": 319.90150451519236,
      "semi_major_axis_km": 6696.549144015481,
      "eccentricity": 0.00026617,
      "inclination_deg": 97.2883,
      "raan_deg": 335.4808,
      "arg_perigee_deg": 341.6518,
      "mean_anomaly_deg": 18.4655,
      "mean_motion_rev_day": 15.84258958
    }
  ]
}