STARLINK-37351          
1 68742U 26082Q   26113.35630949 -.00940416  00000+0 -46454-2 0  9997
2 68742  97.2883 335.4808 0002661 341.6518  18.4655 15.84258958  1151
